CUTE-1 (CO-55)          
1 27844U 03031E   22055.94883222  .00000142  00000+0  83387-4 0  9993
2 27844  98.6815  65.3232 0010906  70.4338 289.8017 14.22385887967911
CUBESAT XI-IV (CO-57)   
1 27848U 03031J   22055.87715256  .00000117  00000+0  72561-4 0  9994
2 27848  98.6864  65.7925 0010863  83.1967 277.0446 14.21952016967719
CUBESAT XI-V            
1 28895U 05043F   22055.83210262  .00000533  00000+0  11036-3 0  9996
2 28895  98.0875 189.0881 0017688 133.4162 226.8516 14.64108200871165
CUTE-1.7+APD II (CO-65) 
1 32785U 08021C   22055.89487318  .00000980  00000+0  10945-3 0  9996
2 32785  97.6442  30.4397 0011352 244.1078 115.8969 14.89100705749805
AAUSAT-II               
1 32788U 08021F   22055.53584548  .00001981  00000+0  17952-3 0  9990
2 32788  97.5264  44.9961 0012520 135.8562 224.3661 14.96395206751547
DELFI-C3 (DO-64)        
1 32789U 08021G   22055.86828843  .00005415  00000+0  32755-3 0  9990
2 32789  97.3537  86.4048 0010863   3.3455 356.7846 15.10990396755013
SEEDS II (CO-66)        
1 32791U 08021J   22055.46005925  .00001416  00000+0  14503-3 0  9995
2 32791  97.6002  35.6462 0012249 200.1160 159.9578 14.91950134750342
SWISSCUBE               
1 35932U 09051B   22055.52700747  .00000362  00000+0  91961-4 0  9993
2 35932  98.5822 268.2271 0008311  40.6860 319.4956 14.56697856659692
BEESAT-1                
1 35933U 09051C   22055.55285686  .00000309  00000+0  80033-4 0  9996
2 35933  98.5768 269.9546 0006676  53.6065 306.5747 14.56735551659733
ITUPSAT1                
1 35935U 09051E   22055.57050415  .00000280  00000+0  74851-4 0  9999
2 35935  98.5871 270.0566 0009014  54.0927 306.1105 14.55857111659455
TISAT 1                 
1 36799U 10035E   22055.82611906  .00001323  00000+0  13552-3 0  9997
2 36799  98.1935 261.8002 0013138 104.0606 256.2073 14.92270699631164
M-CUBED & EXP-1 PRIME   
1 37855U 11061F   22055.85930992  .00004805  00000+0  22641-3 0  9990
2 37855 101.7128 115.7958 0160579  39.0023 322.2643 15.09766592564705
AEROCUBE 4.5A           
1 38767U 12048K   22055.55178362  .00003357  00000+0  24535-3 0  9996
2 38767  64.6654 105.1264 0176935 293.2945  64.9631 14.93781945133915
AEROCUBE 4.5B           
1 38768U 12048L   22055.43907897  .00005764  00000+0  37674-3 0  9999
2 38768  64.6668  62.4981 0166524 288.5566  69.7521 14.98068315134210
STRAND-1                
1 39090U 13009E   22055.50284233  .00000100  00000+0  49844-4 0  9998
2 39090  98.4109 256.5329 0008051 245.1154 114.9196 14.35246956471190
BRITE-AUSTRIA           
1 39091U 13009F   22055.55577727  .00000065  00000+0  37708-4 0  9993
2 39091  98.4119 255.7405 0009380 252.8126 107.2033 14.35231588471233
SOMP                    
1 39134U 13015E   22055.37602643  .00009061  00000+0  36331-3 0  9999
2 39134  64.8630  72.0143 0030702 299.0970  60.7086 15.25121304489590
BEESAT-3                
1 39135U 13015F   22055.54831709  .00005708  00000+0  25944-3 0  9998
2 39135  64.8664 105.0693 0031730 308.8068  51.0227 15.21316865488924
BEESAT-2                
1 39136U 13015G   22055.53045735  .00005252  00000+0  24753-3 0  9995
2 39136  64.8752 112.6504 0011050 274.2211  85.7654 15.20540145488733
NEE-01 PEGASO           
1 39151U 13018B   22055.52864247  .00000718  00000+0  10042-3 0  9999
2 39151  97.9836 161.6770 0015647 260.5133  99.4310 14.80605383476960
ESTCUBE 1               
1 39161U 13021C   22055.78122800  .00000582  00000+0  98826-4 0  9990
2 39161  97.9170 135.9321 0010791  65.2975 294.9345 14.72694196472885
POPACS 1                
1 39268U 13055D   22055.87527250  .00009274  00000+0  24138-3 0  9994
2 39268  81.0008   0.2596 0585708 179.5394 180.6476 14.46939060438470
POPACS 2                
1 39269U 13055E   22055.43838455  .00010202  00000+0  28687-3 0  9995
2 39269  81.0120  54.2869 0655390 319.8462  35.5978 14.30707673434015
POPACS 3                
1 39270U 13055F   22055.51110376  .00004544  00000+0  13723-3 0  9998
2 39270  81.0128  85.1223 0696839  47.3011 318.4727 14.20222243412596
ZACUBE-1 (TSHEPISOSAT)  
1 39417U 13066B   22055.89064466  .00001112  00000+0  14282-3 0  9991
2 39417  97.6237  32.5933 0059604  54.5640 306.1118 14.81869172446453
WNISAT-1                
1 39423U 13066H   22055.94042398  .00000314  00000+0  70831-4 0  9990
2 39423  97.7703 305.6084 0175514 128.9263 232.7730 14.53348118438104
TRITON-1                
1 39427U 13066M   22055.79001712  .00000801  00000+0  13405-3 0  9996
2 39427  97.8041 356.5866 0111188 264.7497  94.1013 14.68571180442430
DELFI-N3XT              
1 39428U 13066N   22055.37492861  .00001547  00000+0  24856-3 0  9990
2 39428  97.8064 354.7125 0117285 279.5352  79.2616 14.68541851441931
GOMX-1                  
1 39430U 13066Q   22055.78679991  .00000913  00000+0  17144-3 0  9997
2 39430  97.8154 329.4089 0151134  40.3706 320.8614 14.59872541439854
CUBEBUG-2 (LO-74)       
1 39440U 13066AA  22055.43935288  .00000813  00000+0  11757-3 0  9997
2 39440  97.7122  17.8788 0080339 137.2764 223.4730 14.76571144443600
NEE-02 KRYSAOR          
1 39441U 13066AB  22055.82380098  .00000534  00000+0  81635-4 0  9997
2 39441  97.7227  15.4878 0081810 148.6678 211.9444 14.75422044444581
FUNCUBE-1 (AO-73)       
1 39444U 13066AE  22055.91804493  .00001429  00000+0  17766-3 0  9997
2 39444  97.6124  35.0138 0058401  43.6626 316.9187 14.82851714445436
UWE-3                   
1 39446U 13066AG  22055.85898386  .00000976  00000+0  13303-3 0  9995
2 39446  97.6713  24.9192 0070800  96.2505 264.6778 14.79115208444404
AEROCUBE 5A             
1 39465U 13072D   22055.53794669  .00029383  00000+0  19032-2 0  9994
2 39465 120.4939 253.1859 0225307 157.9257 203.1681 14.89481321132766
AEROCUBE 5B             
1 39466U 13072E   22055.78958328  .00028099  00000+0  13981-2 0  9996
2 39466 120.4630 329.4875 0179296 173.1597 187.1968 15.04537704133712
BRITE-CA1 (TORONTO)     
1 40020U 14033L   22055.93996584  .00000334  00000+0  65221-4 0  9993
2 40020  97.7622 220.7296 0085753 262.2416  96.9046 14.66867120411270
DUCHIFAT-1              
1 40021U 14033M   22055.83666275  .00001678  00000+0  17118-3 0  9997
2 40021  98.0001   4.1611 0013979  55.8580 304.3962 14.91995537417901
NANOSATC-BR1            
1 40024U 14033Q   22055.82730437  .00001597  00000+0  16727-3 0  9996
2 40024  97.9753 358.0891 0013480  61.7389 298.5188 14.90987457417711
QB50P1                  
1 40025U 14033R   22055.78651340  .00001395  00000+0  15078-3 0  9991
2 40025  97.9522 352.4264 0013756  70.3125 289.9575 14.89895871417493
QB50P2                  
1 40032U 14033Y   22055.77060669  .00001292  00000+0  14185-3 0  9990
2 40032  97.9318 348.1960 0013154  68.2916 291.9700 14.89372903417360
PERSEUS-M2              
1 40037U 14033AD  22055.52566503  .00000488  00000+0  60747-4 0  9998
2 40037  97.8956 338.4181 0015810  88.6130 271.6896 14.86860754416345
PERSEUS-M1              
1 40039U 14033AF  22055.76028997  .00000503  00000+0  63007-4 0  9996
2 40039  97.8871 336.6120 0015650  86.9300 273.3706 14.86477550416772
POLYITAN-1              
1 40042U 14033AJ  22055.79770473  .00001583  00000+0  17064-3 0  9996
2 40042  97.9623 353.4895 0015955  62.2968 297.9865 14.89798441417387
TIGRISAT                
1 40043U 14033AK  22055.53956708  .00000656  00000+0  10257-3 0  9993
2 40043  97.6582 250.8839 0059932 160.9727 199.3741 14.74754569412985
AEROCUBE 6A             
1 40045U 14033AM  22055.81750024  .00000755  00000+0  11349-3 0  9992
2 40045  97.6742 259.5044 0057704 148.8165 211.6491 14.76120949413404
AEROCUBE 6B             
1 40046U 14033AN  22055.81191682  .00001027  00000+0  15141-3 0  9999
2 40046  97.6645 258.0514 0056998 147.2306 213.2460 14.76255309413545
UKUBE-1                 
1 40074U 14037F   22055.83783683  .00001258  00000+0  15474-3 0  9999
2 40074  98.3985 290.5439 0003703 305.1427  54.9436 14.84937739413358
BRITE-PL2 (HEWELIUSZ)   
1 40119U 14049B   22055.47937074  .00000516  00000+0  66977-4 0  9998
2 40119  97.8821 152.3210 0016039 250.2843 109.6642 14.84856789407244
FIREBIRD 4              
1 40378U 15003C   22055.80553234  .00008535  00000+0  28227-3 0  9999
2 40378  99.1144 256.0926 0109661  45.5486 315.4652 15.26005937391239
GRIFEX                  
1 40379U 15003D   22055.75312301  .00006544  00000+0  24738-3 0  9993
2 40379  99.1183 243.0701 0122528  84.3155 277.2032 15.20631297390493
CP10 (EXOCUBE)          
1 40380U 15003E   22055.76615792  .00006477  00000+0  26077-3 0  9999
2 40380  99.1227 236.4358 0128949 106.3375 255.2078 15.17945313390062
TIANWANG 1A (TW-1A)     
1 40928U 15051D   22055.89878912  .00020369  00000+0  34492-3 0  9995
2 40928  97.0543  80.1727 0011100  83.1812  37.8302 15.51506548360747
EXACTVIEW 9             
1 40936U 15052G   22055.41023536  .00001240  00000+0  83301-4 0  9998
2 40936   6.0028 260.2196 0010555 352.7878   7.2097 14.76896884346472
AEROCUBE 5C             
1 40965U 15058B   22055.38805952  .00001025  00000+0  12587-3 0  9990
2 40965  64.7760  74.3553 0205187 235.2529 122.9107 14.75177361132284
AEROCUBE 7              
1 40966U 15058C   22055.76373125  .00001247  00000+0  14814-3 0  9996
2 40966  64.7761  70.6779 0203534 234.8245 123.3649 14.75630284132351
ATHENOXAT 1             
1 41168U 15077C   22055.64009690  .00008642  00000+0  37818-3 0  9997
2 41168  14.9856 204.5918 0010274  95.2088 359.5193 15.17891680343124
GALASSIA                
1 41170U 15077E   22055.58696456  .00007681  00000+0  33271-3 0  9996
2 41170  14.9875 195.3484 0011547 124.6877 235.4533 15.17838206343035
VELOX-II                
1 41171U 15077F   22055.78960281  .00005448  00000+0  25463-3 0  9992
2 41171  14.9907 261.6684 0008456 338.8159  21.1811 15.13938818342560
HORYU-4                 
1 41340U 16012D   22055.53180985  .00002075  00000+0  14587-3 0  9996
2 41340  31.0061 359.8236 0013585 158.8020 201.3181 15.02512539330721
